[{"OBJECT_NAME":"UOSAT 2 (UO-11)","OBJECT_ID":"1984-021B","EPOCH":"2026-03-09T22:36:42.882336","MEAN_MOTION":14.90508611,"ECCENTRICITY":0.00084315,"INCLINATION":97.795,"RA_OF_ASC_NODE":35.7082,"ARG_OF_PERICENTER":142.6564,"MEAN_ANOMALY":217.5241,"EPHEMERIS_TYPE":0,"CLASSIFICATION_TYPE":"U","NORAD_CAT_ID":14781,"ELEMENT_SET_NO":999,"REV_AT_EPOCH":24234,"BSTAR":0.00019045532,"MEAN_MOTION_DOT":1.805e-5,"MEAN_MOTION_DDOT":0},{"OBJECT_NAME":"COSMOS 2251 DEB","OBJECT_ID":"1993-036APY","EPOCH":"2026-02-27T18:53:11.975424","MEAN_MOTION":14.91799606,"ECCENTRICITY":0.00652266,"INCLINATION":74.0385,"RA_OF_ASC_NODE":248.3743,"ARG_OF_PERICENTER":297.547,"MEAN_ANOMALY":61.9095,"EPHEMERIS_TYPE":0,"CLASSIFICATION_TYPE":"U","NORAD_CAT_ID":35703,"ELEMENT_SET_NO":999,"REV_AT_EPOCH":67764,"BSTAR":0.00062223908,"MEAN_MOTION_DOT":6.504e-5,"MEAN_MOTION_DDOT":0}]
